IRIDIUM 112             
1 41925U 17003J   23293.51391396  .00000172  00000+0  54318-4 0  9992
2 41925  86.3949 134.0106 0002315  85.3878 274.7582 14.34214880354177
IRIDIUM 111             
1 41926U 17003K   23292.80354294  .00000371  00000+0  12540-3 0  9991
2 41926  86.3955 134.3571 0001985  81.0287 279.1133 14.34215388354022
IRIDIUM 113             
1 42803U 17039A   23292.92304254  .00000606  00000+0  20936-3 0  9998
2 42803  86.4030   8.0423 0002192  88.6367 271.5079 14.34215518331977
IRIDIUM 123             
1 42804U 17039B   23293.03428889  .00000556  00000+0  19151-3 0  9994
2 42804  86.4005  39.4809 0002247  86.8542 273.2911 14.34221001330755
IRIDIUM 120             
1 42805U 17039C   23293.26554706  .00000610  00000+0  21063-3 0  9994
2 42805  86.4019   7.8080 0002088  92.1715 267.9720 14.34216660332010
IRIDIUM 115             
1 42806U 17039D   23293.21109452  .00000751  00000+0  21678-3 0  9992
2 42806  86.4555   7.8210 0001980  90.2432 269.8996 14.43357798334214
IRIDIUM 118             
1 42807U 17039E   23293.34508255  .00000620  00000+0  21419-3 0  9999
2 42807  86.4006  39.3535 0002135  93.9100 266.2340 14.34218082330808
IRIDIUM 117             
1 42808U 17039F   23293.01525988  .00000652  00000+0  22577-3 0  9997
2 42808  86.4004  39.4577 0001988  94.5353 265.6070 14.34218112330780
